{
  "type": "FeatureCollection",
  "features": [
    {
      "type": "Feature",
      "properties": {
        "norad_id": 41330,
        "name": "COSMOS 2514 (751)",
        "group": "gnss",
        "lat": -47.05997496684421,
        "lon": 169.02626575926365,
        "alt_km": 19106.158691688463,
        "timestamp": "2025-12-19T20:43:00.328345+00:00",
        "meta_object_name": "COSMOS 2514 (751)",
        "meta_object_id": "2016-008A",
        "meta_epoch": "2025-12-19T02:08:24.725184",
        "meta_mean_motion": 2.1310269,
        "meta_eccentricity": 0.00118183,
        "meta_inclination": 65.1302,
        "meta_ra_of_asc_node": 319.1866,
        "meta_arg_of_pericenter": 220.1523,
        "meta_mean_anomaly": 139.7515,
        "meta_ephemeris_type": 0,
        "meta_classification_type": "U",
        "meta_norad_cat_id": 41330,
        "meta_element_set_no": 999,
        "meta_rev_at_epoch": 7678,
        "meta_bstar": 0,
        "meta_mean_motion_dot": -6e-07,
        "meta_mean_motion_ddot": 0,
        "tle_line1": "1 41330U 16008A   25353.08917506 -.00000060  00000+0  00000+0 0  9995",
        "tle_line2": "2 41330  65.1302 319.1866 0011818 220.1523 139.7515  2.13102690 76781"
      },
      "geometry": {
        "type": "Point",
        "coordinates": [
          169.02626575926365,
          -47.05997496684421
        ]
      }
    },
    {
      "type": "Feature",
      "properties": {
        "norad_id": 41384,
        "name": "IRNSS-1F",
        "group": "gnss",
        "lat": -2.3536033490109785,
        "lon": 72.09871092299403,
        "alt_km": 35867.82467017791,
        "timestamp": "2025-12-19T20:43:00.328357+00:00",
        "meta_object_name": "IRNSS-1F",
        "meta_object_id": "2016-015A",
        "meta_epoch": "2025-12-18T13:26:55.794336",
        "meta_mean_motion": 1.00275515,
        "meta_eccentricity": 0.00226475,
        "meta_inclination": 4.8955,
        "meta_ra_of_asc_node": 101.1536,
        "meta_arg_of_pericenter": 181.4277,
        "meta_mean_anomaly": 38.9776,
        "meta_ephemeris_type": 0,
        "meta_classification_type": "U",
        "meta_norad_cat_id": 41384,
        "meta_element_set_no": 999,
        "meta_rev_at_epoch": 3585,
        "meta_bstar": 0,
        "meta_mean_motion_dot": 1.79e-06,
        "meta_mean_motion_ddot": 0,
        "tle_line1": "1 41384U 16015A   25352.56036799  .00000179  00000+0  00000+0 0  9990",
        "tle_line2": "2 41384   4.8955 101.1536 0022647 181.4277  38.9776  1.00275515 35858"
      },
      "geometry": {
        "type": "Point",
        "coordinates": [
          72.09871092299403,
          -2.3536033490109785
        ]
      }
    },
    {
      "type": "Feature",
      "properties": {
        "norad_id": 41434,
        "name": "BEIDOU-2 IGSO-6 (C13)",
        "group": "gnss",
        "lat": 59.89176998586405,
        "lon": 134.75059470255152,
        "alt_km": 35965.11490190474,
        "timestamp": "2025-12-19T20:43:00.328368+00:00",
        "meta_object_name": "BEIDOU-2 IGSO-6 (C13)",
        "meta_object_id": "2016-021A",
        "meta_epoch": "2025-12-18T14:33:38.837664",
        "meta_mean_motion": 1.00292299,
        "meta_eccentricity": 0.00610054,
        "meta_inclination": 59.9732,
        "meta_ra_of_asc_node": 39.8392,
        "meta_arg_of_pericenter": 230.2031,
        "meta_mean_anomaly": 129.1398,
        "meta_ephemeris_type": 0,
        "meta_classification_type": "U",
        "meta_norad_cat_id": 41434,
        "meta_element_set_no": 999,
        "meta_rev_at_epoch": 3566,
        "meta_bstar": 0,
        "meta_mean_motion_dot": -1.41e-06,
        "meta_mean_motion_ddot": 0,
        "tle_line1": "1 41434U 16021A   25352.60669951 -.00000141  00000+0  00000+0 0  9990",
        "tle_line2": "2 41434  59.9732  39.8392 0061005 230.2031 129.1398  1.00292299 35667"
      },
      "geometry": {
        "type": "Point",
        "coordinates": [
          134.75059470255152,
          59.89176998586405
        ]
      }
    },
    {
      "type": "Feature",
      "properties": {
        "norad_id": 41469,
        "name": "IRNSS-1G",
        "group": "gnss",
        "lat": 4.381938658231908,
        "lon": 168.9079159337308,
        "alt_km": 35785.341479109105,
        "timestamp": "2025-12-19T20:43:00.328380+00:00",
        "meta_object_name": "IRNSS-1G",
        "meta_object_id": "2016-027A",
        "meta_epoch": "2025-12-19T07:01:56.235072",
        "meta_mean_motion": 1.00276978,
        "meta_eccentricity": 0.00025895,
        "meta_inclination": 4.7502,
        "meta_ra_of_asc_node": 101.9284,
        "meta_arg_of_pericenter": 330.5979,
        "meta_mean_anomaly": 250.5847,
        "meta_ephemeris_type": 0,
        "meta_classification_type": "U",
        "meta_norad_cat_id": 41469,
        "meta_element_set_no": 999,
        "meta_rev_at_epoch": 3537,
        "meta_bstar": 0,
        "meta_mean_motion_dot": -3.13e-06,
        "meta_mean_motion_ddot": 0,
        "tle_line1": "1 41469U 16027A   25353.29301198 -.00000313  00000+0  00000+0 0  9997",
        "tle_line2": "2 41469   4.7502 101.9284 0002589 330.5979 250.5847  1.00276978 35378"
      },
      "geometry": {
        "type": "Point",
        "coordinates": [
          168.9079159337308,
          4.381938658231908
        ]
      }
    },
    {
      "type": "Feature",
      "properties": {
        "norad_id": 41549,
        "name": "GSAT0211 (GALILEO 14)",
        "group": "gnss",
        "lat": -12.677855493350659,
        "lon": -142.37057100984063,
        "alt_km": 23213.928382507296,
        "timestamp": "2025-12-19T20:43:00.328392+00:00",
        "meta_object_name": "GSAT0211 (GALILEO 14)",
        "meta_object_id": "2016-030A",
        "meta_epoch": "2025-12-14T00:32:28.498848",
        "meta_mean_motion": 1.70473201,
        "meta_eccentricity": 0.000407,
        "meta_inclination": 55.1518,
        "meta_ra_of_asc_node": 226.7881,
        "meta_arg_of_pericenter": 16.5595,
        "meta_mean_anomaly": 343.5367,
        "meta_ephemeris_type": 0,
        "meta_classification_type": "U",
        "meta_norad_cat_id": 41549,
        "meta_element_set_no": 999,
        "meta_rev_at_epoch": 5951,
        "meta_bstar": 0,
        "meta_mean_motion_dot": 2.8e-07,
        "meta_mean_motion_ddot": 0,
        "tle_line1": "1 41549U 16030A   25348.02255207  .00000028  00000+0  00000+0 0  9996",
        "tle_line2": "2 41549  55.1518 226.7881 0004070  16.5595 343.5367  1.70473201 59512"
      },
      "geometry": {
        "type": "Point",
        "coordinates": [
          -142.37057100984063,
          -12.677855493350659
        ]
      }
    },
    {
      "type": "Feature",
      "properties": {
        "norad_id": 41550,
        "name": "GSAT0210 (GALILEO 13)",
        "group": "gnss",
        "lat": -5.387759058885489,
        "lon": 50.4050813536954,
        "alt_km": 23221.414092475537,
        "timestamp": "2025-12-19T20:43:00.328405+00:00",
        "meta_object_name": "GSAT0210 (GALILEO 13)",
        "meta_object_id": "2016-030B",
        "meta_epoch": "2025-12-18T23:20:38.714784",
        "meta_mean_motion": 1.70473668,
        "meta_eccentricity": 7.917e-05,
        "meta_inclination": 55.1496,
        "meta_ra_of_asc_node": 226.6499,
        "meta_arg_of_pericenter": 227.6007,
        "meta_mean_anomaly": 132.5002,
        "meta_ephemeris_type": 0,
        "meta_classification_type": "U",
        "meta_norad_cat_id": 41550,
        "meta_element_set_no": 999,
        "meta_rev_at_epoch": 5959,
        "meta_bstar": 0,
        "meta_mean_motion_dot": 6.5e-07,
        "meta_mean_motion_ddot": 0,
        "tle_line1": "1 41550U 16030B   25352.97267031  .00000065  00000+0  00000+0 0  9996",
        "tle_line2": "2 41550  55.1496 226.6499 0000791 227.6007 132.5002  1.70473668 59599"
      },
      "geometry": {
        "type": "Point",
        "coordinates": [
          50.4050813536954,
          -5.387759058885489
        ]
      }
    },
    {
      "type": "Feature",
      "properties": {
        "norad_id": 41586,
        "name": "BEIDOU-2 G7 (C03)",
        "group": "gnss",
        "lat": 1.7691512794641078,
        "lon": 149.95818349311867,
        "alt_km": 35781.621151946965,
        "timestamp": "2025-12-19T20:43:00.328417+00:00",
        "meta_object_name": "BEIDOU-2 G7 (C03)",
        "meta_object_id": "2016-037A",
        "meta_epoch": "2025-12-19T01:48:17.629920",
        "meta_mean_motion": 1.00272235,
        "meta_eccentricity": 0.00051456,
        "meta_inclination": 1.772,
        "meta_ra_of_asc_node": 67.8336,
        "meta_arg_of_pericenter": 3.0969,
        "meta_mean_anomaly": 154.5255,
        "meta_ephemeris_type": 0,
        "meta_classification_type": "U",
        "meta_norad_cat_id": 41586,
        "meta_element_set_no": 999,
        "meta_rev_at_epoch": 508,
        "meta_bstar": 0,
        "meta_mean_motion_dot": -3.3e-06,
        "meta_mean_motion_ddot": 0,
        "tle_line1": "1 41586U 16037A   25353.07520405 -.00000330  00000+0  00000+0 0  9997",
        "tle_line2": "2 41586   1.7720  67.8336 0005145   3.0969 154.5255  1.00272235  5080"
      },
      "geometry": {
        "type": "Point",
        "coordinates": [
          149.95818349311867,
          1.7691512794641078
        ]
      }
    }
  ]
}